GOES-16
1 41866U 16071A   26010.92989531 -.00000077  00000-0  00000-0 0  9990
2 41866   0.0955  98.6748 0003073 179.8488  61.9765  1.00271279 33522
FENGYUN-4A
1 41882U 16077A   26010.97513322 -.00000344  00000-0  00000-0 0  9997
2 41882   1.9240  82.1058 0005232 136.0813   7.1563  1.00272078 33352
FOX-1B (AO-91)
1 43017U 17073E   26010.88455191  .00008672  00000-0  40200-3 0  9995
2 43017  97.4930 241.4287 0159928 149.8845 211.1701 15.09558145441634
CANX-2
1 32790U 08021H   26010.90909382  .00004001  00000-0  29309-3 0  9992
2 32790  97.8471 347.9587 0009510 205.2205 154.8557 15.04111931961156
AIST-2 (RS-43)
1 39133U 13015D   26010.96637023  .00006798  00000-0  28406-3 0  9997
2 39133  64.8700  50.6521 0027201 254.2465 105.5664 15.24098512699924
NANOSATC-BR1
1 40024U 14033Q   26010.98690235  .00017428  00000-0  68489-3 0  9992
2 40024  98.0893  29.9838 0004765  34.6506 325.5040 15.25752691629968
QB50P1
1 40025U 14033R   26010.94965564  .00010181  00000-0  54623-3 0  9993
2 40025  98.0983  11.4139 0010734  51.0656 309.1530 15.15125104629190
QB50P2
1 40032U 14033Y   26010.92944521  .00008166  00000-0  47362-3 0  9991
2 40032  98.0666 358.4088 0007838   6.1815 353.9509 15.12428439628873
PERSEUS-M2
1 40037U 14033AD  26010.93274238  .00002831  00000-0  26499-3 0  9999
2 40037  97.9789 318.5247 0013719  99.2516 261.0256 14.94846013627285
PERSEUS-M1
1 40039U 14033AF  26010.78215500  .00002889  00000-0  26985-3 0  9994
2 40039  97.9491 312.5667 0013483  98.4900 261.7849 14.94914710627110
POLYITAN-1
1 40042U 14033AJ  26010.98934477  .00020413  00000-0  77348-3 0  9993
2 40042  98.1075  23.0262 0007656 352.0435   8.0679 15.26912698629559
TIGRISAT
1 40043U 14033AK  26010.96065277  .00003074  00000-0  36507-3 0  9991
2 40043  97.7581 164.8721 0049120 229.6051 130.0872 14.84318939622292
UKUBE-1
1 40074U 14037F   26010.94187721  .00009117  00000-0  55873-3 0  9997
2 40074  98.4174 358.1270 0002006  42.2852 317.8529 15.10432776624796
DEORBITSAIL
1 40719U 15032E   26010.86456952  .00008839  00000-0  69466-3 0  9998
2 40719  97.6108 230.7630 0013189  47.5398 312.6939 15.01039631567621
HORYU-IV
1 41340U 16012D   26010.94180639  .00053200  00000-0  78899-3 0  9995
2 41340  30.9927 109.0097 0005520 156.7319 203.3582 15.53916954546099
D-SAT
1 42794U 17036AF  26010.92546532  .00010339  00000-0  51798-3 0  9997
2 42794  97.5402 350.7116 0085681 347.7531  12.1617 15.14337881467035
CORVUS-BC2
1 42846U 17042X   26010.96177967  .00003650  00000-0  26089-3 0  9991
2 42846  97.3854 178.7192 0012398 292.5287  67.4627 15.05006528463406
CORVUS-BC1
1 42847U 17042Y   26010.91119770  .00003872  00000-0  27481-3 0  9998
2 42847  97.3899 179.3724 0010524 266.8472  93.1551 15.05261060463421
APRIZESAT-5 
1 37792U 11044E   26010.77737809  .00001100  00000-0  14719-3 0  9992
2 37792  98.2378 299.4909 0053234 148.2728 212.1710 14.80660342775498
APRIZESAT-6
1 37793U 11044F   26010.75222980  .00000945  00000-0  14135-3 0  9998
2 37793  98.2459 277.9908 0042255 228.5847 199.7006 14.76615568773912
APRIZESAT-7
1 39416U 13066A   26010.81524626  .00002272  00000-0  23250-3 0  9990
2 39416  97.7509 326.5472 0036656  15.5989 344.6350 14.91029698657770
APRIZESAT-8
1 39425U 13066K   26010.93154037  .00001322  00000-0  14999-3 0  9993
2 39425  97.8039 320.8203 0047866  83.5409 277.1254 14.87204717656296
BUGSAT-1 (TITA)
1 40014U 14033E   26010.94397828  .00004275  00000-0  23926-3 0  9992
2 40014  98.0521  94.4921 0029204   0.1220   0.0012 15.13689549632035
SAUDISAT-4
1 40016U 14033G   26010.93349105  .00001033  00000-0  14371-3 0  9991
2 40016  97.7320 162.7626 0044089 224.0404 135.7293 14.79242323622829
TABLETSAT-AURORA
1 40017U 14033H   26010.98560161  .00005521  00000-0  29825-3 0  9990
2 40017  98.0451  75.9216 0012791  37.6488 322.5635 15.15099307631384
APRIZESAT-9
1 40018U 14033J   26010.93147288  .00000681  00000-0  10797-3 0  9997
2 40018  97.8808 148.2362 0066149 347.0922  12.8590 14.73940010620398
APRIZESAT-10
1 40019U 14033K   26010.90486722  .00000588  00000-0  99998-4 0  9991
2 40019  97.9422 141.6229 0080204  56.6414 304.2436 14.70652885619132
AISAT
1 40054U 14034B   26010.61191843  .00011045  00000-0  78091-3 0  9996
2 40054  98.2487 271.8923 0011215  36.2262 323.9720 15.05027281623475
COSMOS-2407 [+]
1 28380U 04028A   26010.97512788  .00000078  00000-0  64460-4 0  9990
2 28380  82.9597 191.2457 0038653 333.7468 136.6557 13.76317383 78258
COSMOS-2414 [+]
1 28521U 05002A   26010.94478767  .00000062  00000-0  38228-4 0  9991
2 28521  82.9506 162.5770 0041138  58.8837 301.6352 13.87906980 62003
COSMOS-2463 [+]
1 36519U 10017A   26010.99124653  .00000056  00000-0  45610-4 0  9992
2 36519  82.9608   5.2139 0035508 204.3235 209.1854 13.71651859786386
NOAA-15
1 25338U 98030A   26010.99640766  .00000155  00000-0  81016-4 0  9998
2 25338  98.5203  35.7778 0011397  88.8273 271.4214 14.27085262438872
NOAA-18
1 28654U 05018A   26010.93034427  .00000113  00000-0  82914-4 0  9993
2 28654  98.8257  92.8175 0013467 235.3706 124.6198 14.13695481 64097
NOAA-19
1 33591U 09005A   26010.83064569  .00000047  00000-0  49014-4 0  9998
2 33591  98.9725  81.4706 0014702 114.4652 245.8056 14.13443489872251
SARAL
1 39086U 13009A   26010.91870329  .00000120  00000-0  60221-4 0  9995
2 39086  98.5509 199.4692 0002633  53.3200 306.8225 14.32769451673083
LAPAN-A3
1 41603U 16040E   26010.96261840  .00004224  00000-0  13968-3 0  9992
2 41603  97.1444  12.4625 0009422 210.0885 149.9817 15.31834759530739
BIROS
1 41604U 16040F   26010.61515452  .00526536  13907-3  65494-3 0  9995
2 41604  97.0636  48.5106 0002058  95.0298 265.1220 16.07792031533331
METOP-A
1 29499U 06044A   26010.94747974  .00003285  00000-0  38607-3 0  9992
2 29499  98.3277 112.8967 0175461 210.2780 216.8528 14.75207417  2269
METEOR M1
1 35865U 09049A   26010.51728320  .00000126  00000-0  75428-4 0  9995
2 35865  98.7172 334.3154 0003145  58.9002 301.2484 14.23108017846820
METOP-B
1 38771U 12049A   26010.93536643  .00000129  00000-0  78977-4 0  9994
2 38771  98.6757  65.3933 0003339  85.0317 275.1241 14.21421297690922
METEOR M2
1 40069U 14037A   26010.96164126 -.00000100  00000-0 -26830-4 0  9994
2 40069  98.4940 352.4312 0006553 125.7754 234.4034 14.21399927596989
CSSWE
1 38761U 12048D   26010.95879513  .00023901  00000-0  62658-3 0  9991
2 38761  64.6622 262.6372 0082334 218.4494 141.0756 15.35205053 92186
MCUBED-2
1 39469U 13072H   26010.86731300  .00017133  00000-0  73117-3 0  9998
2 39469 120.4895 106.5819 0151319 201.1070 158.3704 15.13360408 93970
IPEX
1 39471U 13072K   26010.97527927  .00008755  00000-0  46008-3 0  9990
2 39471 120.4689  62.5271 0172581 188.3219 171.4966 15.04769179 91547
FOX-1A (AO-85)
1 40967U 15058D   26010.80789074  .00002360  00000-0  22308-3 0  9996
2 40967  64.7761  47.6799 0132039 118.6728 242.7733 14.89902951 90119
OOREOS
1 37224U 10062C   26010.91135667  .00002575  00000-0  25385-3 0  9999
2 37224  71.9711  76.3851 0015155 357.1224   2.9856 14.92876006 93169
STARS (KUKAI)
1 33498U 09002G   26010.80773817  .00004061  00000-0  38402-3 0  9999
2 33498  98.1401 312.0176 0008237 340.6039  19.4865 14.94249500914967
YUBELEINY-2 (RS-40)
1 38735U 12041C   26010.95340748  .00000044  00000-0  24826-3 0  9996
2 38735  82.4763 172.7276 0017759  52.6020 307.6673 12.42642251610316
AIST-1
1 39492U 13078C   26010.95709786  .00002431  00000-0  21665-3 0  9999
2 39492  82.4144  63.1390 0018652  85.0322 275.3028 14.95484825651746
VELOX-1
1 40057U 14034E   26010.98699472  .00005938  00000-0  53434-3 0  9998
2 40057  98.2681 267.1577 0009403  72.4520 287.7726 14.96011812623084
DX1
1 40071U 14037C   26010.91778907  .00001351  00000-0  14904-3 0  9995
2 40071  98.3675 323.3482 0008576  66.9915 293.2204 14.89300373622694
COSMOS-2491 (RS-46) [i]
1 39497U 13076E   26010.96390711  .00000005  00000-0 -32941-4 0  9993
2 39497  82.4844 266.2861 0013881  73.6802 286.5803 12.43493783545710
COSMOS-2499 (RS-47) [i]
1 39765U 14028E   26010.97724738  .00000032  00000-0  78270-4 0  9994
2 39765  82.4511 358.5171 0231888  11.0239 349.5821 12.82899554544861
TRANSIT 5B-5
1 00965U 64083D   26010.97614214  .00000061  00000-0  71889-4 0  9998
2 00965  90.0664 201.8048 0042136  20.2021 108.2148 13.56994946 22298
EUTELSAT 1-F4 (ECS 4)
1 18351U 87078B   26010.76218777 -.00000213  00000-0  00000-0 0  9999
2 18351  13.9403 343.2252 0009720  16.0535 154.1749  0.98689823125203
BISONSAT
1 40968U 15058E   26010.49749358  .00003410  00000-0  28786-3 0  9996
2 40968  64.7765  32.1865 0120472 116.6302 244.7213 14.94394077 93085
DTUSAT-2
1 40030U 14033W   26010.92067242  .00008421  00000-0  48964-3 0  9998
2 40030  98.0782 359.0459 0009888  57.7400 302.4786 15.12314329628898
ELEKTRO-L2
1 41105U 15074A   26010.94774875 -.00000108  00000-0  00000-0 0  9998
2 41105   6.2996  72.4783 0003840 216.6945 147.9688  1.00271147 36931
DOVE-3
1 39429U 13066P   26010.85948212  .00003510  00000-0  47257-3 0  9998
2 39429  97.6819 238.6494 0115625 174.2206 186.0370 14.75228780647801
FORTE
1 24920U 97047A   26010.69003548  .00000222  00000-0  11279-3 0  9997
2 24920  69.9541   9.7397 0019785 139.7115 220.5478 14.27859699476202
DMSP 5D-2 F15/USA-147
1 25991U 99067A   26010.90414530  .00000148  00000-0  95531-4 0  9992
2 25991  99.0181  47.3386 0010935  91.0368  38.3523 14.17490763348362
CASSIOPE-1
1 39265U 13055A   26010.94123399  .00033303 -32614-6  43240-3 0  9999
2 39265  80.9195 256.1121 0332431 228.3622 128.8703 15.13793641643785
D-STAR ONE PHOENIX
1 43188U 18014J   26010.69137373  .00006098  00000-0  33189-3 0  9996
2 43188  97.5491 276.7170 0008475 189.1831 170.9247 15.14784479434906
S-NET D
1 43186U 18014G   26010.69178649  .00005981  00000-0  32568-3 0  9995
2 43186  97.5479 276.5550 0007790 192.8623 167.2412 15.14777796434906
TEN-KOH
1 43677U 18084G   26010.95895285  .00002683  00000-0  20951-3 0  9997
2 43677  98.0751 196.7689 0007124 290.6295  69.4164 15.02030021392550
